{"type": "FeatureCollection", "features": [ {"type": "Feature", "properties": {"norad_id": 34833, "name": "IRIDIUM 33 DEB", "group": "iridium-33-debris", "lat": 72.19193139722496, "lon": -137.7232679926075, "alt_km": 696.048401031373, "timestamp": "2025-12-06T16:45:43.106587+00:00", "meta": {"OBJECT_NAME": "IRIDIUM 33 DEB", "OBJECT_ID": "1997-051MH", "EPOCH": "2025-12-04T11:26:09.511872", "MEAN_MOTION": 14.52297117, "ECCENTRICITY": 0.00216, "INCLINATION": 86.3942, "RA_OF_ASC_NODE": 54.5547, "ARG_OF_PERICENTER": 123.9185, "MEAN_ANOMALY": 254.0843, "EPHEMERIS_TYPE": 0, "CLASSIFICATION_TYPE": "U", "NORAD_CAT_ID": 34833, "ELEMENT_SET_NO": 999, "REV_AT_EPOCH": 87595, "BSTAR": 0.0019345, "MEAN_MOTION_DOT": 7.908e-05, "MEAN_MOTION_DDOT": 0}, "tle": {"line1": "1 34833U 97051MH  25338.47649898  .00007908  00000+0  19345-2 0  9996", "line2": "2 34833  86.3942  54.5547 0021600 123.9185 254.0843 14.52297117875952"}}, "geometry": {"type": "Point", "coordinates": [-137.7232679926075, 72.19193139722496]}}, {"type": "Feature", "properties": {"norad_id": 34870, "name": "IRIDIUM 33 DEB", "group": "iridium-33-debris", "lat": -80.53147513243074, "lon": -65.9118203802565, "alt_km": 645.5825716494519, "timestamp": "2025-12-06T16:45:43.106597+00:00", "meta": {"OBJECT_NAME": "IRIDIUM 33 DEB", "OBJECT_ID": "1997-051MQ", "EPOCH": "2025-12-06T06:01:40.638720", "MEAN_MOTION": 14.7623031, "ECCENTRICITY": 0.00152329, "INCLINATION": 86.3104, "RA_OF_ASC_NODE": 317.0553, "ARG_OF_PERICENTER": 206.8225, "MEAN_ANOMALY": 216.4192, "EPHEMERIS_TYPE": 0, "CLASSIFICATION_TYPE": "U", "NORAD_CAT_ID": 34870, "ELEMENT_SET_NO": 999, "REV_AT_EPOCH": 88815, "BSTAR": 0.002728719, "MEAN_MOTION_DOT": 0.00018975, "MEAN_MOTION_DDOT": 0}, "tle": {"line1": "1 34870U 97051MQ  25340.25116480  .00018975  00000+0  27287-2 0  9992", "line2": "2 34870  86.3104 317.0553 0015232 206.8225 216.4192 14.76230310888150"}}, "geometry": {"type": "Point", "coordinates": [-65.9118203802565, -80.53147513243074]}}, {"type": "Feature", "properties": {"norad_id": 34896, "name": "IRIDIUM 33 DEB", "group": "iridium-33-debris", "lat": -20.665813496280244, "lon": -31.993009988879166, "alt_km": 682.1234197271215, "timestamp": "2025-12-06T16:45:43.106608+00:00", "meta": {"OBJECT_NAME": "IRIDIUM 33 DEB", "OBJECT_ID": "1997-051MY", "EPOCH": "2025-12-05T17:05:39.506784", "MEAN_MOTION": 14.66165825, "ECCENTRICITY": 0.00238087, "INCLINATION": 86.3279, "RA_OF_ASC_NODE": 329.8372, "ARG_OF_PERICENTER": 240.6117, "MEAN_ANOMALY": 296.7708, "EPHEMERIS_TYPE": 0, "CLASSIFICATION_TYPE": "U", "NORAD_CAT_ID": 34896, "ELEMENT_SET_NO": 999, "REV_AT_EPOCH": 87516, "BSTAR": 0.001793551, "MEAN_MOTION_DOT": 9.929e-05, "MEAN_MOTION_DDOT": 0}, "tle": {"line1": "1 34896U 97051MY  25339.71226281  .00009929  00000+0  17936-2 0  9999", "line2": "2 34896  86.3279 329.8372 0023808 240.6117 296.7708 14.66165825875163"}}, "geometry": {"type": "Point", "coordinates": [-31.993009988879166, -20.665813496280244]}}, {"type": "Feature", "properties": {"norad_id": 34926, "name": "IRIDIUM 33 DEB", "group": "iridium-33-debris", "lat": -32.88891018736909, "lon": 8.565885190156115, "alt_km": 666.2572884290503, "timestamp": "2025-12-06T16:45:43.106618+00:00", "meta": {"OBJECT_NAME": "IRIDIUM 33 DEB", "OBJECT_ID": "1997-051NF", "EPOCH": "2025-12-06T02:10:24.331296", "MEAN_MOTION": 14.53948419, "ECCENTRICITY": 0.00763667, "INCLINATION": 86.1314, "RA_OF_ASC_NODE": 11.3554, "ARG_OF_PERICENTER": 315.4577, "MEAN_ANOMALY": 71.8192, "EPHEMERIS_TYPE": 0, "CLASSIFICATION_TYPE": "U", "NORAD_CAT_ID": 34926, "ELEMENT_SET_NO": 999, "REV_AT_EPOCH": 86360, "BSTAR": 0.0073242874, "MEAN_MOTION_DOT": 0.00032185, "MEAN_MOTION_DDOT": 0}, "tle": {"line1": "1 34926U 97051NF  25340.09055939  .00032185  00000+0  73243-2 0  9999", "line2": "2 34926  86.1314  11.3554 0076366 315.4577  71.8192 14.53948419863607"}}, "geometry": {"type": "Point", "coordinates": [8.565885190156115, -32.88891018736909]}}, {"type": "Feature", "properties": {"norad_id": 34985, "name": "IRIDIUM 33 DEB", "group": "iridium-33-debris", "lat": -2.8003761033683383, "lon": 59.27885525125474, "alt_km": 761.7840069132408, "timestamp": "2025-12-06T16:45:43.106629+00:00", "meta": {"OBJECT_NAME": "IRIDIUM 33 DEB", "OBJECT_ID": "1997-051NR", "EPOCH": "2025-12-06T05:15:00.430272", "MEAN_MOTION": 14.41964666, "ECCENTRICITY": 0.00201311, "INCLINATION": 86.3699, "RA_OF_ASC_NODE": 59.6613, "ARG_OF_PERICENTER": 242.4844, "MEAN_ANOMALY": 146.2512, "EPHEMERIS_TYPE": 0, "CLASSIFICATION_TYPE": "U", "NORAD_CAT_ID": 34985, "ELEMENT_SET_NO": 999, "REV_AT_EPOCH": 87081, "BSTAR": 0.0012834659, "MEAN_MOTION_DOT": 4.235e-05, "MEAN_MOTION_DDOT": 0}, "tle": {"line1": "1 34985U 97051NR  25340.21875498  .00004235  00000+0  12835-2 0  9993", "line2": "2 34985  86.3699  59.6613 0020131 242.4844 146.2512 14.41964666870819"}}, "geometry": {"type": "Point", "coordinates": [59.27885525125474, -2.8003761033683383]}}, {"type": "Feature", "properties": {"norad_id": 35051, "name": "IRIDIUM 33 DEB", "group": "iridium-33-debris", "lat": 11.242232705642321, "lon": -169.23712389018618, "alt_km": 731.5511835224897, "timestamp": "2025-12-06T16:45:43.106638+00:00", "meta": {"OBJECT_NAME": "IRIDIUM 33 DEB", "OBJECT_ID": "1997-051NX", "EPOCH": "2025-12-05T08:27:53.565120", "MEAN_MOTION": 14.47546386, "ECCENTRICITY": 0.00106363, "INCLINATION": 86.3242, "RA_OF_ASC_NODE": 12.0813, "ARG_OF_PERICENTER": 111.2483, "MEAN_ANOMALY": 248.9857, "EPHEMERIS_TYPE": 0, "CLASSIFICATION_TYPE": "U", "NORAD_CAT_ID": 35051, "ELEMENT_SET_NO": 999, "REV_AT_EPOCH": 86889, "BSTAR": 0.0012192117, "MEAN_MOTION_DOT": 4.506e-05, "MEAN_MOTION_DDOT": 0}, "tle": {"line1": "1 35051U 97051NX  25339.35270330  .00004506  00000+0  12192-2 0  9992", "line2": "2 35051  86.3242  12.0813 0010636 111.2483 248.9857 14.47546386868892"}}, "geometry": {"type": "Point", "coordinates": [-169.23712389018618, 11.242232705642321]}}, {"type": "Feature", "properties": {"norad_id": 35052, "name": "IRIDIUM 33 DEB", "group": "iridium-33-debris", "lat": 24.638318465729537, "lon": -158.61966954671828, "alt_km": 757.2283439692783, "timestamp": "2025-12-06T16:45:43.106649+00:00", "meta": {"OBJECT_NAME": "IRIDIUM 33 DEB", "OBJECT_ID": "1997-051NY", "EPOCH": "2025-12-04T20:38:14.764704", "MEAN_MOTION": 14.38478571, "ECCENTRICITY": 0.0013621, "INCLINATION": 86.3316, "RA_OF_ASC_NODE": 23.8542, "ARG_OF_PERICENTER": 106.9628, "MEAN_ANOMALY": 253.3064, "EPHEMERIS_TYPE": 0, "CLASSIFICATION_TYPE": "U", "NORAD_CAT_ID": 35052, "ELEMENT_SET_NO": 999, "REV_AT_EPOCH": 87162, "BSTAR": 0.00036777, "MEAN_MOTION_DOT": 1.143e-05, "MEAN_MOTION_DDOT": 0}, "tle": {"line1": "1 35052U 97051NY  25338.85989311  .00001143  00000+0  36777-3 0  9993", "line2": "2 35052  86.3316  23.8542 0013621 106.9628 253.3064 14.38478571871628"}}, "geometry": {"type": "Point", "coordinates": [-158.61966954671828, 24.638318465729537]}}, {"type": "Feature", "properties": {"norad_id": 35080, "name": "IRIDIUM 33 DEB", "group": "iridium-33-debris", "lat": 29.330206099918108, "lon": 57.39802997851207, "alt_km": 655.8194005366076, "timestamp": "2025-12-06T16:45:43.106659+00:00", "meta": {"OBJECT_NAME": "IRIDIUM 33 DEB", "OBJECT_ID": "1997-051PF", "EPOCH": "2025-12-05T22:50:10.565088", "MEAN_MOTION": 14.84725398, "ECCENTRICITY": 0.00625763, "INCLINATION": 86.2064, "RA_OF_ASC_NODE": 55.6178, "ARG_OF_PERICENTER": 202.8962, "MEAN_ANOMALY": 156.947, "EPHEMERIS_TYPE": 0, "CLASSIFICATION_TYPE": "U", "NORAD_CAT_ID": 35080, "ELEMENT_SET_NO": 999, "REV_AT_EPOCH": 69587, "BSTAR": 0.011235471, "MEAN_MOTION_DOT": 0.000998, "MEAN_MOTION_DDOT": 0}, "tle": {"line1": "1 35080U 97051PF  25339.95151117  .00099800  00000+0  11235-1 0  9998", "line2": "2 35080  86.2064  55.6178 0062576 202.8962 156.9470 14.84725398695879"}}, "geometry": {"type": "Point", "coordinates": [57.39802997851207, 29.330206099918108]}}, {"type": "Feature", "properties": {"norad_id": 35297, "name": "IRIDIUM 33 DEB", "group": "iridium-33-debris", "lat": -81.43716156629647, "lon": 40.525204611784766, "alt_km": 754.9228025312123, "timestamp": "2025-12-06T16:45:43.106669+00:00", "meta": {"OBJECT_NAME": "IRIDIUM 33 DEB", "OBJECT_ID": "1997-051PM", "EPOCH": "2025-12-06T00:31:29.302752", "MEAN_MOTION": 14.45108459, "ECCENTRICITY": 0.00170329, "INCLINATION": 86.3867, "RA_OF_ASC_NODE": 65.6268, "ARG_OF_PERICENTER": 161.2449, "MEAN_ANOMALY": 198.9384, "EPHEMERIS_TYPE": 0, "CLASSIFICATION_TYPE": "U", "NORAD_CAT_ID": 35297, "ELEMENT_SET_NO": 999, "REV_AT_EPOCH": 70329, "BSTAR": 0.0012426888, "MEAN_MOTION_DOT": 4.371e-05, "MEAN_MOTION_DDOT": 0}, "tle": {"line1": "1 35297U 97051PM  25340.02186693  .00004371  00000+0  12427-2 0  9999", "line2": "2 35297  86.3867  65.6268 0017032 161.2449 198.9384 14.45108459703293"}}, "geometry": {"type": "Point", "coordinates": [40.525204611784766, -81.43716156629647]}}, {"type": "Feature", "properties": {"norad_id": 35299, "name": "IRIDIUM 33 DEB", "group": "iridium-33-debris", "lat": -56.13559290861214, "lon": 30.267285351410404, "alt_km": 804.7986954132748, "timestamp": "2025-12-06T16:45:43.106680+00:00", "meta": {"OBJECT_NAME": "IRIDIUM 33 DEB", "OBJECT_ID": "1997-051PP", "EPOCH": "2025-12-04T22:15:32.154336", "MEAN_MOTION": 14.40800476, "ECCENTRICITY": 0.0058727, "INCLINATION": 86.2893, "RA_OF_ASC_NODE": 36.5873, "ARG_OF_PERICENTER": 127.2291, "MEAN_ANOMALY": 356.5642, "EPHEMERIS_TYPE": 0, "CLASSIFICATION_TYPE": "U", "NORAD_CAT_ID": 35299, "ELEMENT_SET_NO": 999, "REV_AT_EPOCH": 86218, "BSTAR": 0.0017577, "MEAN_MOTION_DOT": 5.762e-05, "MEAN_MOTION_DDOT": 0}, "tle": {"line1": "1 35299U 97051PP  25338.92745549  .00005762  00000+0  17577-2 0  9994", "line2": "2 35299  86.2893  36.5873 0058727 127.2291 356.5642 14.40800476862181"}}, "geometry": {"type": "Point", "coordinates": [30.267285351410404, -56.13559290861214]}}]}